[
    {
        "Altitude(m)": 624792.7375970104,
        "Argument of Periapsis(deg)": 0.0,
        "Eccentricity": 0.0,
        "Inclination(deg)": 60.0,
        "Latitude(deg)": -59.146983055110255,
        "Longitude(deg)": 99.02639070002775,
        "Mean Anomaly(deg)": -98.18179999999994,
        "RAAN(deg)": 305.0,
        "Satellite Name": "Test1 1358",
        "Satellite Number": 1358,
        "Semi-Major Axis(m)": 6980739.136638005,
        "Time(s)": 0
    },
    {
        "Altitude(m)": 624842.1297767534,
        "Argument of Periapsis(deg)": 0.00010418945913296404,
        "Eccentricity": 0.0,
        "Inclination(deg)": 60.0,
        "Latitude(deg)": -59.2890668104449,
        "Longitude(deg)": 100.15589124416303,
        "Mean Anomaly(deg)": -97.56169385453809,
        "RAAN(deg)": 304.99957995086027,
        "Satellite Name": "Test1 1358",
        "Satellite Number": 1358,
        "Semi-Major Axis(m)": 6980739.136638005,
        "Time(s)": 10
    }
]